[{"OBJECT_NAME":"TRANSPORTER-15 OBJECT R","OBJECT_ID":"2025-276R","EPOCH":"2026-03-09T16:52:42.731904","MEAN_MOTION":15.20705036,"ECCENTRICITY":0.00051791,"INCLINATION":97.4189,"RA_OF_ASC_NODE":143.9638,"ARG_OF_PERICENTER":19.2989,"MEAN_ANOMALY":340.8441,"EPHEMERIS_TYPE":0,"CLASSIFICATION_TYPE":"U","NORAD_CAT_ID":66681,"ELEMENT_SET_NO":999,"REV_AT_EPOCH":1532,"BSTAR":0.00086230498,"MEAN_MOTION_DOT":0.00018928,"MEAN_MOTION_DDOT":0},{"OBJECT_NAME":"ALSAT-3B","OBJECT_ID":"2026-021A","EPOCH":"2026-03-09T21:47:36.363264","MEAN_MOTION":15.23965648,"ECCENTRICITY":0.00137736,"INCLINATION":97.4662,"RA_OF_ASC_NODE":143.2461,"ARG_OF_PERICENTER":131.2824,"MEAN_ANOMALY":228.9602,"EPHEMERIS_TYPE":0,"CLASSIFICATION_TYPE":"U","NORAD_CAT_ID":67646,"ELEMENT_SET_NO":999,"REV_AT_EPOCH":575,"BSTAR":0.00034138739,"MEAN_MOTION_DOT":8.212e-5,"MEAN_MOTION_DDOT":0}]
